[{"OBJECT_NAME":"STARLINK-30338","OBJECT_ID":"2023-129W","EPOCH":"2026-03-09T22:00:01.999584","MEAN_MOTION":15.26753613,"ECCENTRICITY":0.00012914,"INCLINATION":42.9999,"RA_OF_ASC_NODE":116.8583,"ARG_OF_PERICENTER":250.1763,"MEAN_ANOMALY":138.3958,"EPHEMERIS_TYPE":0,"CLASSIFICATION_TYPE":"U","NORAD_CAT_ID":57718,"ELEMENT_SET_NO":999,"REV_AT_EPOCH":577,"BSTAR":0.00014443015,"MEAN_MOTION_DOT":3.618e-5,"MEAN_MOTION_DDOT":0},{"OBJECT_NAME":"NUSAT-44 (MARIA MITCHELL)","OBJECT_ID":"2024-043AA","EPOCH":"2026-03-09T22:12:18.524160","MEAN_MOTION":15.29764305,"ECCENTRICITY":0.0007331,"INCLINATION":97.5299,"RA_OF_ASC_NODE":207.7691,"ARG_OF_PERICENTER":214.9017,"MEAN_ANOMALY":145.1743,"EPHEMERIS_TYPE":0,"CLASSIFICATION_TYPE":"U","NORAD_CAT_ID":59122,"ELEMENT_SET_NO":999,"REV_AT_EPOCH":11209,"BSTAR":0.00061063193,"MEAN_MOTION_DOT":0.00017562,"MEAN_MOTION_DDOT":0}]
